[{"OBJECT_NAME":"HIBARI","OBJECT_ID":"2021-102F","EPOCH":"2026-03-09T16:55:51.090816","MEAN_MOTION":15.29554512,"ECCENTRICITY":0.00120742,"INCLINATION":97.3381,"RA_OF_ASC_NODE":115.826,"ARG_OF_PERICENTER":186.5211,"MEAN_ANOMALY":173.5875,"EPHEMERIS_TYPE":0,"CLASSIFICATION_TYPE":"U","NORAD_CAT_ID":49400,"ELEMENT_SET_NO":999,"REV_AT_EPOCH":23897,"BSTAR":0.00042758039,"MEAN_MOTION_DOT":0.00012206,"MEAN_MOTION_DDOT":0},{"OBJECT_NAME":"STARLINK-34782","OBJECT_ID":"2025-190H","EPOCH":"2026-03-09T14:00:18.525600","MEAN_MOTION":15.30185807,"ECCENTRICITY":0.0001372,"INCLINATION":53.1587,"RA_OF_ASC_NODE":168.3432,"ARG_OF_PERICENTER":90.4661,"MEAN_ANOMALY":269.6497,"EPHEMERIS_TYPE":0,"CLASSIFICATION_TYPE":"U","NORAD_CAT_ID":65358,"ELEMENT_SET_NO":999,"REV_AT_EPOCH":2974,"BSTAR":0.0011545,"MEAN_MOTION_DOT":0.00033975,"MEAN_MOTION_DDOT":0}]
